{
"type": "FeatureCollection",
"name": "chennai_flood_points",
"crs": { "type": "name", "properties": { "name": "urn:ogc:def:crs:OGC:1.3:CRS84" } },
"features": [
{ "type": "Feature", "properties": { "flood_point_id": "40", "depth_inches": 7.0, "zone": null, "ward": null, "remarks": "completely  inundated  with flood water", "depth_cm": 17.78, "latitude": 12.9989055, "longitude": 80.207447 }, "geometry": { "type": "Point", "coordinates": [ 80.207447, 12.9989055 ] } },
{ "type": "Feature", "properties": { "flood_point_id": "41", "depth_inches": 6.5, "zone": null, "ward": null, "remarks": "partially flooded", "depth_cm": 16.51, "latitude": 12.99926, "longitude": 80.2075221 }, "geometry": { "type": "Point", "coordinates": [ 80.2075221, 12.99926 ] } },
{ "type": "Feature", "properties": { "flood_point_id": "42", "depth_inches": 6.0, "zone": null, "ward": null, "remarks": "partially flooded", "depth_cm": 15.24, "latitude": 13.0025457, "longitude": 80.2087814 }, "geometry": { "type": "Point", "coordinates": [ 80.2087814, 13.0025457 ] } },
{ "type": "Feature", "properties": { "flood_point_id": "43", "depth_inches": 6.5, "zone": null, "ward": null, "remarks": "partially flooded", "depth_cm": 16.51, "latitude": 12.9999502, "longitude": 80.207727 }, "geometry": { "type": "Point", "coordinates": [ 80.207727, 12.9999502 ] } },
{ "type": "Feature", "properties": { "flood_point_id": "44", "depth_inches": 6.5, "zone": null, "ward": null, "remarks": "partially  inundated one side of the road", "depth_cm": 16.51, "latitude": 12.9783961, "longitude": 80.2041982 }, "geometry": { "type": "Point", "coordinates": [ 80.2041982, 12.9783961 ] } },
{ "type": "Feature", "properties": { "flood_point_id": "45", "depth_inches": 5.5, "zone": null, "ward": null, "remarks": "partially flooded one side of the road", "depth_cm": 13.97, "latitude": 12.973235, "longitude": 80.2107428 }, "geometry": { "type": "Point", "coordinates": [ 80.2107428, 12.973235 ] } },
{ "type": "Feature", "properties": { "flood_point_id": "47", "depth_inches": 7.0, "zone": null, "ward": null, "remarks": "partially inundated on sides of the road", "depth_cm": 17.78, "latitude": 12.9613758, "longitude": 80.2151748 }, "geometry": { "type": "Point", "coordinates": [ 80.2151748, 12.9613758 ] } },
{ "type": "Feature", "properties": { "flood_point_id": "48", "depth_inches": 6.5, "zone": null, "ward": null, "remarks": "partially inundated on the side of the road", "depth_cm": 16.51, "latitude": 12.9573618, "longitude": 80.2135598 }, "geometry": { "type": "Point", "coordinates": [ 80.2135598, 12.9573618 ] } },
{ "type": "Feature", "properties": { "flood_point_id": "49", "depth_inches": 6.0, "zone": null, "ward": null, "remarks": "partially inundated on the road", "depth_cm": 15.24, "latitude": 12.9725609, "longitude": 80.2194656 }, "geometry": { "type": "Point", "coordinates": [ 80.2194656, 12.9725609 ] } },
{ "type": "Feature", "properties": { "flood_point_id": "50", "depth_inches": 6.0, "zone": null, "ward": null, "remarks": "partially inundated on the road", "depth_cm": 15.24, "latitude": 12.9727053, "longitude": 80.2195052 }, "geometry": { "type": "Point", "coordinates": [ 80.2195052, 12.9727053 ] } },
{ "type": "Feature", "properties": { "flood_point_id": "51", "depth_inches": 6.0, "zone": null, "ward": null, "remarks": "partially inundated on the road", "depth_cm": 15.24, "latitude": 12.973793, "longitude": 80.2186606 }, "geometry": { "type": "Point", "coordinates": [ 80.2186606, 12.973793 ] } },
{ "type": "Feature", "properties": { "flood_point_id": "52", "depth_inches": 6.5, "zone": null, "ward": null, "remarks": "partially inundated on the road", "depth_cm": 16.51, "latitude": 12.9754798, "longitude": 80.2207229 }, "geometry": { "type": "Point", "coordinates": [ 80.2207229, 12.9754798 ] } },
{ "type": "Feature", "properties": { "flood_point_id": "53", "depth_inches": 6.0, "zone": null, "ward": null, "remarks": "partially inundated on the road side", "depth_cm": 15.24, "latitude": 12.9755569, "longitude": 80.2207685 }, "geometry": { "type": "Point", "coordinates": [ 80.2207685, 12.9755569 ] } },
{ "type": "Feature", "properties": { "flood_point_id": "54", "depth_inches": 6.0, "zone": null, "ward": null, "remarks": "partially inundated on the road near bus stand", "depth_cm": 15.24, "latitude": 12.9761094, "longitude": 80.2211896 }, "geometry": { "type": "Point", "coordinates": [ 80.2211896, 12.9761094 ] } },
{ "type": "Feature", "properties": { "flood_point_id": "55", "depth_inches": 5.5, "zone": null, "ward": null, "remarks": "partially flooded on the road", "depth_cm": 13.97, "latitude": 12.9761728, "longitude": 80.2212664 }, "geometry": { "type": "Point", "coordinates": [ 80.2212664, 12.9761728 ] } },
{ "type": "Feature", "properties": { "flood_point_id": "56", "depth_inches": 6.0, "zone": null, "ward": null, "remarks": "partially inundated on sides of the road", "depth_cm": 15.24, "latitude": 12.9762257, "longitude": 80.2212299 }, "geometry": { "type": "Point", "coordinates": [ 80.2212299, 12.9762257 ] } },
{ "type": "Feature", "properties": { "flood_point_id": "57", "depth_inches": 6.0, "zone": null, "ward": null, "remarks": "partially inundated on the road side", "depth_cm": 15.24, "latitude": 12.9775316, "longitude": 80.2212393 }, "geometry": { "type": "Point", "coordinates": [ 80.2212393, 12.9775316 ] } },
{ "type": "Feature", "properties": { "flood_point_id": "58", "depth_inches": 6.0, "zone": null, "ward": null, "remarks": "partially flooded", "depth_cm": 15.24, "latitude": 12.9774976, "longitude": 80.2212594 }, "geometry": { "type": "Point", "coordinates": [ 80.2212594, 12.9774976 ] } },
{ "type": "Feature", "properties": { "flood_point_id": "59", "depth_inches": 6.0, "zone": null, "ward": null, "remarks": "partially flooded on the road side", "depth_cm": 15.24, "latitude": 12.978268, "longitude": 80.2212108 }, "geometry": { "type": "Point", "coordinates": [ 80.2212108, 12.978268 ] } },
{ "type": "Feature", "properties": { "flood_point_id": "60", "depth_inches": 6.0, "zone": null, "ward": null, "remarks": "partially inundated on the road side", "depth_cm": 15.24, "latitude": 12.9786532, "longitude": 80.2212004 }, "geometry": { "type": "Point", "coordinates": [ 80.2212004, 12.9786532 ] } },
{ "type": "Feature", "properties": { "flood_point_id": "61", "depth_inches": 6.0, "zone": null, "ward": null, "remarks": "flood inundated on the road", "depth_cm": 15.24, "latitude": 12.9799613, "longitude": 80.2210679 }, "geometry": { "type": "Point", "coordinates": [ 80.2210679, 12.9799613 ] } },
{ "type": "Feature", "properties": { "flood_point_id": "62", "depth_inches": 9.0, "zone": null, "ward": null, "remarks": "flood inundated on the road near tneb office", "depth_cm": 22.86, "latitude": 12.9802998, "longitude": 80.2210082 }, "geometry": { "type": "Point", "coordinates": [ 80.2210082, 12.9802998 ] } },
{ "type": "Feature", "properties": { "flood_point_id": "63", "depth_inches": 8.0, "zone": null, "ward": null, "remarks": "partially flooded", "depth_cm": 20.32, "latitude": 12.9808337, "longitude": 80.2209667 }, "geometry": { "type": "Point", "coordinates": [ 80.2209667, 12.9808337 ] } },
{ "type": "Feature", "properties": { "flood_point_id": "64", "depth_inches": 9.0, "zone": null, "ward": null, "remarks": "partially flooded on the road", "depth_cm": 22.86, "latitude": 12.9809493, "longitude": 80.2210103 }, "geometry": { "type": "Point", "coordinates": [ 80.2210103, 12.9809493 ] } },
{ "type": "Feature", "properties": { "flood_point_id": "65", "depth_inches": 9.5, "zone": null, "ward": null, "remarks": "partially flooded", "depth_cm": 24.13, "latitude": 12.9810264, "longitude": 80.2210542 }, "geometry": { "type": "Point", "coordinates": [ 80.2210542, 12.9810264 ] } },
{ "type": "Feature", "properties": { "flood_point_id": "66", "depth_inches": 7.5, "zone": null, "ward": null, "remarks": "partially flooded", "depth_cm": 19.05, "latitude": 12.9811332, "longitude": 80.2210827 }, "geometry": { "type": "Point", "coordinates": [ 80.2210827, 12.9811332 ] } },
{ "type": "Feature", "properties": { "flood_point_id": "67", "depth_inches": 6.0, "zone": null, "ward": null, "remarks": "partially flooded", "depth_cm": 15.24, "latitude": 12.9743847, "longitude": 80.2204192 }, "geometry": { "type": "Point", "coordinates": [ 80.2204192, 12.9743847 ] } },
{ "type": "Feature", "properties": { "flood_point_id": "68", "depth_inches": 5.5, "zone": null, "ward": null, "remarks": "partially flooded on the road near bus stop", "depth_cm": 13.97, "latitude": 12.9636665, "longitude": 80.2154524 }, "geometry": { "type": "Point", "coordinates": [ 80.2154524, 12.9636665 ] } },
{ "type": "Feature", "properties": { "flood_point_id": "69", "depth_inches": 5.5, "zone": null, "ward": null, "remarks": "partially flooded on the road side", "depth_cm": 13.97, "latitude": 12.9637452, "longitude": 80.2151738 }, "geometry": { "type": "Point", "coordinates": [ 80.2151738, 12.9637452 ] } },
{ "type": "Feature", "properties": { "flood_point_id": "70", "depth_inches": 6.5, "zone": null, "ward": null, "remarks": "completely flooded  on the road junction", "depth_cm": 16.51, "latitude": 12.9646794, "longitude": 80.1961197 }, "geometry": { "type": "Point", "coordinates": [ 80.1961197, 12.9646794 ] } },
{ "type": "Feature", "properties": { "flood_point_id": "71", "depth_inches": 5.5, "zone": null, "ward": null, "remarks": "partially flooded on the road side", "depth_cm": 13.97, "latitude": 12.9646415, "longitude": 80.1959859 }, "geometry": { "type": "Point", "coordinates": [ 80.1959859, 12.9646415 ] } },
{ "type": "Feature", "properties": { "flood_point_id": "72", "depth_inches": 17.0, "zone": null, "ward": null, "remarks": "food water completely  inundate and cause road block sometimes", "depth_cm": 43.18, "latitude": 12.9646467, "longitude": 80.1959135 }, "geometry": { "type": "Point", "coordinates": [ 80.1959135, 12.9646467 ] } },
{ "type": "Feature", "properties": { "flood_point_id": "73", "depth_inches": 5.7, "zone": null, "ward": null, "remarks": "partially flooded on the road side", "depth_cm": 14.48, "latitude": 12.9651521, "longitude": 80.1923354 }, "geometry": { "type": "Point", "coordinates": [ 80.1923354, 12.9651521 ] } },
{ "type": "Feature", "properties": { "flood_point_id": "74", "depth_inches": 5.5, "zone": null, "ward": null, "remarks": "partially flooded on the road side", "depth_cm": 13.97, "latitude": 12.9652191, "longitude": 80.1920873 }, "geometry": { "type": "Point", "coordinates": [ 80.1920873, 12.9652191 ] } },
{ "type": "Feature", "properties": { "flood_point_id": "86", "depth_inches": 7.0, "zone": null, "ward": null, "remarks": "partially  covered  one side of the road", "depth_cm": 17.78, "latitude": 12.9967772, "longitude": 80.2491892 }, "geometry": { "type": "Point", "coordinates": [ 80.2491892, 12.9967772 ] } },
{ "type": "Feature", "properties": { "flood_point_id": "87", "depth_inches": 6.0, "zone": null, "ward": null, "remarks": "partially flooded covering one side of the road", "depth_cm": 15.24, "latitude": 12.9967043, "longitude": 80.2492073 }, "geometry": { "type": "Point", "coordinates": [ 80.2492073, 12.9967043 ] } },
{ "type": "Feature", "properties": { "flood_point_id": "88", "depth_inches": 7.0, "zone": null, "ward": null, "remarks": "partially  flooded  covering  flyover  entry", "depth_cm": 17.78, "latitude": 13.0068879, "longitude": 80.2401093 }, "geometry": { "type": "Point", "coordinates": [ 80.2401093, 13.0068879 ] } },
{ "type": "Feature", "properties": { "flood_point_id": "89", "depth_inches": 29.0, "zone": null, "ward": null, "remarks": "completely flooded  and drain within 2 hours", "depth_cm": 73.66, "latitude": 12.9796666, "longitude": 80.2432156 }, "geometry": { "type": "Point", "coordinates": [ 80.2432156, 12.9796666 ] } },
{ "type": "Feature", "properties": { "flood_point_id": "90", "depth_inches": 17.0, "zone": null, "ward": null, "remarks": "completely flooded bocking railway  station exit upto 1 feet", "depth_cm": 43.18, "latitude": 12.9783275, "longitude": 80.2389006 }, "geometry": { "type": "Point", "coordinates": [ 80.2389006, 12.9783275 ] } },
{ "type": "Feature", "properties": { "flood_point_id": "91", "depth_inches": 10.5, "zone": null, "ward": null, "remarks": "completely flooded", "depth_cm": 26.67, "latitude": 12.9782033, "longitude": 80.2397274 }, "geometry": { "type": "Point", "coordinates": [ 80.2397274, 12.9782033 ] } },
{ "type": "Feature", "properties": { "flood_point_id": "92", "depth_inches": 6.0, "zone": null, "ward": null, "remarks": "completely flooded upto 12", "depth_cm": 15.24, "latitude": 12.97802, "longitude": 80.2410806 }, "geometry": { "type": "Point", "coordinates": [ 80.2410806, 12.97802 ] } },
{ "type": "Feature", "properties": { "flood_point_id": "93", "depth_inches": 5.0, "zone": null, "ward": null, "remarks": "completely flooded upto10", "depth_cm": 12.7, "latitude": 12.9780782, "longitude": 80.2414282 }, "geometry": { "type": "Point", "coordinates": [ 80.2414282, 12.9780782 ] } },
{ "type": "Feature", "properties": { "flood_point_id": "94", "depth_inches": 6.0, "zone": null, "ward": null, "remarks": "completely flooded bocking railway station entrance  upto 2 feet", "depth_cm": 15.24, "latitude": 12.9782056, "longitude": 80.2418735 }, "geometry": { "type": "Point", "coordinates": [ 80.2418735, 12.9782056 ] } },
{ "type": "Feature", "properties": { "flood_point_id": "95", "depth_inches": 7.0, "zone": null, "ward": null, "remarks": "completely inundated", "depth_cm": 17.78, "latitude": 12.9784039, "longitude": 80.2425192 }, "geometry": { "type": "Point", "coordinates": [ 80.2425192, 12.9784039 ] } },
{ "type": "Feature", "properties": { "flood_point_id": "96", "depth_inches": 7.0, "zone": null, "ward": null, "remarks": "completely flooded bocking railway station entrance  upto 1 feet", "depth_cm": 17.78, "latitude": 12.9785379, "longitude": 80.2430483 }, "geometry": { "type": "Point", "coordinates": [ 80.2430483, 12.9785379 ] } },
{ "type": "Feature", "properties": { "flood_point_id": "97", "depth_inches": 20.0, "zone": null, "ward": null, "remarks": "completely flooded  upto 1.5 feet reported drain in 2 hours", "depth_cm": 50.8, "latitude": 12.9783892, "longitude": 80.2431747 }, "geometry": { "type": "Point", "coordinates": [ 80.2431747, 12.9783892 ] } },
{ "type": "Feature", "properties": { "flood_point_id": "98", "depth_inches": 20.0, "zone": null, "ward": null, "remarks": "completely flooded  reported", "depth_cm": 50.8, "latitude": 12.978811, "longitude": 80.2431378 }, "geometry": { "type": "Point", "coordinates": [ 80.2431378, 12.978811 ] } },
{ "type": "Feature", "properties": { "flood_point_id": "99", "depth_inches": 16.0, "zone": null, "ward": null, "remarks": "railway station covered by flood upto 1 feet", "depth_cm": 40.64, "latitude": 12.9783595, "longitude": 80.240986 }, "geometry": { "type": "Point", "coordinates": [ 80.240986, 12.9783595 ] } },
{ "type": "Feature", "properties": { "flood_point_id": "100", "depth_inches": 9.0, "zone": null, "ward": null, "remarks": "completely flooded upto  1 feet and drain in 2 hours", "depth_cm": 22.86, "latitude": 12.975108, "longitude": 80.2440625 }, "geometry": { "type": "Point", "coordinates": [ 80.2440625, 12.975108 ] } },
{ "type": "Feature", "properties": { "flood_point_id": "101", "depth_inches": 5.0, "zone": null, "ward": null, "remarks": "completely flooded upto 1 feet", "depth_cm": 12.7, "latitude": 12.9748591, "longitude": 80.2441453 }, "geometry": { "type": "Point", "coordinates": [ 80.2441453, 12.9748591 ] } },
{ "type": "Feature", "properties": { "flood_point_id": "102", "depth_inches": 7.0, "zone": null, "ward": null, "remarks": "completely flooded", "depth_cm": 17.78, "latitude": 12.9746405, "longitude": 80.2442016 }, "geometry": { "type": "Point", "coordinates": [ 80.2442016, 12.9746405 ] } },
{ "type": "Feature", "properties": { "flood_point_id": "103", "depth_inches": 6.0, "zone": null, "ward": null, "remarks": "flood water inundated  into road juction", "depth_cm": 15.24, "latitude": 12.9357513, "longitude": 80.2339036 }, "geometry": { "type": "Point", "coordinates": [ 80.2339036, 12.9357513 ] } },
{ "type": "Feature", "properties": { "flood_point_id": "104", "depth_inches": 6.5, "zone": null, "ward": null, "remarks": "inundated  into road  covering junction", "depth_cm": 16.51, "latitude": 12.9139844, "longitude": 80.2293566 }, "geometry": { "type": "Point", "coordinates": [ 80.2293566, 12.9139844 ] } },
{ "type": "Feature", "properties": { "flood_point_id": "119", "depth_inches": 6.0, "zone": null, "ward": null, "remarks": "partially inundated on the junction", "depth_cm": 15.24, "latitude": 12.9114318, "longitude": 80.1958475 }, "geometry": { "type": "Point", "coordinates": [ 80.1958475, 12.9114318 ] } },
{ "type": "Feature", "properties": { "flood_point_id": "120", "depth_inches": 6.0, "zone": null, "ward": null, "remarks": "partially inundated", "depth_cm": 15.24, "latitude": 12.911374, "longitude": 80.1959021 }, "geometry": { "type": "Point", "coordinates": [ 80.1959021, 12.911374 ] } },
{ "type": "Feature", "properties": { "flood_point_id": "24", "depth_inches": 6.0, "zone": null, "ward": null, "remarks": "one side of the road got partially  flood", "depth_cm": 15.24, "latitude": 12.9270726, "longitude": 80.1977609 }, "geometry": { "type": "Point", "coordinates": [ 80.1977609, 12.9270726 ] } },
{ "type": "Feature", "properties": { "flood_point_id": "25", "depth_inches": 6.0, "zone": null, "ward": null, "remarks": "connecting road junction got flooded", "depth_cm": 15.24, "latitude": 12.9277399, "longitude": 80.1982122 }, "geometry": { "type": "Point", "coordinates": [ 80.1982122, 12.9277399 ] } },
{ "type": "Feature", "properties": { "flood_point_id": "26", "depth_inches": 8.5, "zone": null, "ward": null, "remarks": "main road got partially  flooded and connection got afffected", "depth_cm": 21.59, "latitude": 12.9358912, "longitude": 80.2043262 }, "geometry": { "type": "Point", "coordinates": [ 80.2043262, 12.9358912 ] } },
{ "type": "Feature", "properties": { "flood_point_id": "27", "depth_inches": 6.0, "zone": null, "ward": null, "remarks": "partially  flooded  covering  half of the road on both side", "depth_cm": 15.24, "latitude": 12.9404894, "longitude": 80.2057156 }, "geometry": { "type": "Point", "coordinates": [ 80.2057156, 12.9404894 ] } },
{ "type": "Feature", "properties": { "flood_point_id": "28", "depth_inches": 6.5, "zone": null, "ward": null, "remarks": "both side of the road got flooded", "depth_cm": 16.51, "latitude": 12.9412204, "longitude": 80.2059932 }, "geometry": { "type": "Point", "coordinates": [ 80.2059932, 12.9412204 ] } },
{ "type": "Feature", "properties": { "flood_point_id": "29", "depth_inches": 6.5, "zone": null, "ward": null, "remarks": "service road joining main road  got partially  flooded", "depth_cm": 16.51, "latitude": 12.9512903, "longitude": 80.2109858 }, "geometry": { "type": "Point", "coordinates": [ 80.2109858, 12.9512903 ] } },
{ "type": "Feature", "properties": { "flood_point_id": "30", "depth_inches": 6.0, "zone": null, "ward": null, "remarks": "partially flooded", "depth_cm": 15.24, "latitude": 12.9733166, "longitude": 80.219695 }, "geometry": { "type": "Point", "coordinates": [ 80.219695, 12.9733166 ] } },
{ "type": "Feature", "properties": { "flood_point_id": "31", "depth_inches": 6.5, "zone": null, "ward": null, "remarks": "partially flooded", "depth_cm": 16.51, "latitude": 12.9761463, "longitude": 80.2198958 }, "geometry": { "type": "Point", "coordinates": [ 80.2198958, 12.9761463 ] } },
{ "type": "Feature", "properties": { "flood_point_id": "32", "depth_inches": 7.0, "zone": null, "ward": null, "remarks": "road got completely  flooed", "depth_cm": 17.78, "latitude": 12.976312, "longitude": 80.2193074 }, "geometry": { "type": "Point", "coordinates": [ 80.2193074, 12.976312 ] } },
{ "type": "Feature", "properties": { "flood_point_id": "33", "depth_inches": 8.0, "zone": null, "ward": null, "remarks": "partially  side of the road got flooded", "depth_cm": 20.32, "latitude": 12.9779942, "longitude": 80.2190999 }, "geometry": { "type": "Point", "coordinates": [ 80.2190999, 12.9779942 ] } },
{ "type": "Feature", "properties": { "flood_point_id": "34", "depth_inches": 29.0, "zone": null, "ward": null, "remarks": "completely  flooded", "depth_cm": 73.66, "latitude": 12.9974263, "longitude": 80.2161726 }, "geometry": { "type": "Point", "coordinates": [ 80.2161726, 12.9974263 ] } },
{ "type": "Feature", "properties": { "flood_point_id": "35", "depth_inches": 6.0, "zone": null, "ward": null, "remarks": "partially  flooded  covering  one side  of the road", "depth_cm": 15.24, "latitude": 13.0067024, "longitude": 80.2126642 }, "geometry": { "type": "Point", "coordinates": [ 80.2126642, 13.0067024 ] } },
{ "type": "Feature", "properties": { "flood_point_id": "36", "depth_inches": 15.0, "zone": null, "ward": null, "remarks": "flood water completely  get inundated  into the road", "depth_cm": 38.1, "latitude": 13.0098038, "longitude": 80.2150226 }, "geometry": { "type": "Point", "coordinates": [ 80.2150226, 13.0098038 ] } },
{ "type": "Feature", "properties": { "flood_point_id": "37", "depth_inches": 7.0, "zone": null, "ward": null, "remarks": "flood water inundate upto 2feet in subway", "depth_cm": 17.78, "latitude": 12.9955825, "longitude": 80.2011622 }, "geometry": { "type": "Point", "coordinates": [ 80.2011622, 12.9955825 ] } },
{ "type": "Feature", "properties": { "flood_point_id": "38", "depth_inches": 9.5, "zone": null, "ward": null, "remarks": "partially flooded covering half road", "depth_cm": 24.13, "latitude": 12.9971826, "longitude": 80.2070906 }, "geometry": { "type": "Point", "coordinates": [ 80.2070906, 12.9971826 ] } },
{ "type": "Feature", "properties": { "flood_point_id": "39", "depth_inches": 7.5, "zone": null, "ward": null, "remarks": "partially flooded", "depth_cm": 19.05, "latitude": 12.9974096, "longitude": 80.2071278 }, "geometry": { "type": "Point", "coordinates": [ 80.2071278, 12.9974096 ] } },
{ "type": "Feature", "properties": { "flood_point_id": "190", "depth_inches": 60.0, "zone": null, "ward": null, "remarks": "completely inundated covering entirely- traffic inspector record", "depth_cm": 152.4, "latitude": 12.9487149, "longitude": 80.2018432 }, "geometry": { "type": "Point", "coordinates": [ 80.2018432, 12.9487149 ] } },
{ "type": "Feature", "properties": { "flood_point_id": "191", "depth_inches": 40.0, "zone": null, "ward": null, "remarks": "completely inundated covering entirely", "depth_cm": 101.6, "latitude": 12.9487165, "longitude": 80.2029167 }, "geometry": { "type": "Point", "coordinates": [ 80.2029167, 12.9487165 ] } },
{ "type": "Feature", "properties": { "flood_point_id": "192", "depth_inches": 15.0, "zone": null, "ward": null, "remarks": "completely inundated  covering entirely", "depth_cm": 38.1, "latitude": 12.9487613, "longitude": 80.2035273 }, "geometry": { "type": "Point", "coordinates": [ 80.2035273, 12.9487613 ] } },
{ "type": "Feature", "properties": { "flood_point_id": "193", "depth_inches": 14.0, "zone": null, "ward": null, "remarks": "completely inundated", "depth_cm": 35.56, "latitude": 12.9725528, "longitude": 80.1914282 }, "geometry": { "type": "Point", "coordinates": [ 80.1914282, 12.9725528 ] } },
{ "type": "Feature", "properties": { "flood_point_id": "194", "depth_inches": 35.0, "zone": null, "ward": null, "remarks": "completely inundated subway blocked", "depth_cm": 88.9, "latitude": 12.9853013, "longitude": 80.17684 }, "geometry": { "type": "Point", "coordinates": [ 80.17684, 12.9853013 ] } },
{ "type": "Feature", "properties": { "flood_point_id": "195", "depth_inches": 35.0, "zone": null, "ward": null, "remarks": "completely inundated subways blocked", "depth_cm": 88.9, "latitude": 12.989225, "longitude": 80.185412 }, "geometry": { "type": "Point", "coordinates": [ 80.185412, 12.989225 ] } },
{ "type": "Feature", "properties": { "flood_point_id": "196", "depth_inches": 14.0, "zone": null, "ward": null, "remarks": "completely inundated", "depth_cm": 35.56, "latitude": 12.9768687, "longitude": 80.1935022 }, "geometry": { "type": "Point", "coordinates": [ 80.1935022, 12.9768687 ] } },
{ "type": "Feature", "properties": { "flood_point_id": "197", "depth_inches": 5.0, "zone": null, "ward": null, "remarks": "", "depth_cm": 12.7, "latitude": 12.9777083, "longitude": 80.193806 }, "geometry": { "type": "Point", "coordinates": [ 80.193806, 12.9777083 ] } },
{ "type": "Feature", "properties": { "flood_point_id": "198", "depth_inches": 15.0, "zone": null, "ward": null, "remarks": "completely inundated", "depth_cm": 38.1, "latitude": 12.9794984, "longitude": 80.1946036 }, "geometry": { "type": "Point", "coordinates": [ 80.1946036, 12.9794984 ] } },
{ "type": "Feature", "properties": { "flood_point_id": "199", "depth_inches": 11.0, "zone": null, "ward": null, "remarks": "completely inundated", "depth_cm": 27.94, "latitude": 12.9809297, "longitude": 80.1952644 }, "geometry": { "type": "Point", "coordinates": [ 80.1952644, 12.9809297 ] } },
{ "type": "Feature", "properties": { "flood_point_id": "200", "depth_inches": 10.0, "zone": null, "ward": null, "remarks": "completely inundated", "depth_cm": 25.4, "latitude": 12.9819961, "longitude": 80.1958994 }, "geometry": { "type": "Point", "coordinates": [ 80.1958994, 12.9819961 ] } },
{ "type": "Feature", "properties": { "flood_point_id": "201", "depth_inches": 15.0, "zone": null, "ward": null, "remarks": "completely inundated and drain in 4 hours", "depth_cm": 38.1, "latitude": 12.9593422, "longitude": 80.2445919 }, "geometry": { "type": "Point", "coordinates": [ 80.2445919, 12.9593422 ] } },
{ "type": "Feature", "properties": { "flood_point_id": "202", "depth_inches": 13.0, "zone": null, "ward": null, "remarks": "completely inundated", "depth_cm": 33.02, "latitude": 12.959023, "longitude": 80.2444786 }, "geometry": { "type": "Point", "coordinates": [ 80.2444786, 12.959023 ] } },
{ "type": "Feature", "properties": { "flood_point_id": "203", "depth_inches": 10.0, "zone": null, "ward": null, "remarks": "completely inundated", "depth_cm": 25.4, "latitude": 12.9587563, "longitude": 80.2443425 }, "geometry": { "type": "Point", "coordinates": [ 80.2443425, 12.9587563 ] } },
{ "type": "Feature", "properties": { "flood_point_id": "204", "depth_inches": 13.0, "zone": null, "ward": null, "remarks": "completely inundated", "depth_cm": 33.02, "latitude": 12.9623321, "longitude": 80.2459743 }, "geometry": { "type": "Point", "coordinates": [ 80.2459743, 12.9623321 ] } },
{ "type": "Feature", "properties": { "flood_point_id": "205", "depth_inches": 7.0, "zone": null, "ward": null, "remarks": "completely inundated blocking connection road", "depth_cm": 17.78, "latitude": 13.0332651, "longitude": 80.2096652 }, "geometry": { "type": "Point", "coordinates": [ 80.2096652, 13.0332651 ] } },
{ "type": "Feature", "properties": { "flood_point_id": "206", "depth_inches": 7.8, "zone": null, "ward": null, "remarks": "partially inundated", "depth_cm": 19.81, "latitude": 13.0333788, "longitude": 80.2097054 }, "geometry": { "type": "Point", "coordinates": [ 80.2097054, 13.0333788 ] } },
{ "type": "Feature", "properties": { "flood_point_id": "207", "depth_inches": 7.0, "zone": null, "ward": null, "remarks": "partially inundated", "depth_cm": 17.78, "latitude": 13.0334791, "longitude": 80.2097235 }, "geometry": { "type": "Point", "coordinates": [ 80.2097235, 13.0334791 ] } },
{ "type": "Feature", "properties": { "flood_point_id": "208", "depth_inches": 7.5, "zone": null, "ward": null, "remarks": "partially inundated", "depth_cm": 19.05, "latitude": 13.0331475, "longitude": 80.2096763 }, "geometry": { "type": "Point", "coordinates": [ 80.2096763, 13.0331475 ] } },
{ "type": "Feature", "properties": { "flood_point_id": "209", "depth_inches": 21.0, "zone": null, "ward": null, "remarks": "completely inundated  blocking road", "depth_cm": 53.34, "latitude": 13.0352494, "longitude": 80.2097785 }, "geometry": { "type": "Point", "coordinates": [ 80.2097785, 13.0352494 ] } },
{ "type": "Feature", "properties": { "flood_point_id": "210", "depth_inches": 15.0, "zone": null, "ward": null, "remarks": "completely inundated  blocking road reported", "depth_cm": 38.1, "latitude": 13.0350907, "longitude": 80.2099277 }, "geometry": { "type": "Point", "coordinates": [ 80.2099277, 13.0350907 ] } },
{ "type": "Feature", "properties": { "flood_point_id": "211", "depth_inches": 13.0, "zone": null, "ward": null, "remarks": "completely inundated", "depth_cm": 33.02, "latitude": 13.0366657, "longitude": 80.2122435 }, "geometry": { "type": "Point", "coordinates": [ 80.2122435, 13.0366657 ] } },
{ "type": "Feature", "properties": { "flood_point_id": "212", "depth_inches": 11.0, "zone": null, "ward": null, "remarks": "completely inundated", "depth_cm": 27.94, "latitude": 13.0368261, "longitude": 80.2122515 }, "geometry": { "type": "Point", "coordinates": [ 80.2122515, 13.0368261 ] } },
{ "type": "Feature", "properties": { "flood_point_id": "213", "depth_inches": 13.0, "zone": null, "ward": null, "remarks": "completely inundated covering entirely junction", "depth_cm": 33.02, "latitude": 13.0368908, "longitude": 80.2122384 }, "geometry": { "type": "Point", "coordinates": [ 80.2122384, 13.0368908 ] } },
{ "type": "Feature", "properties": { "flood_point_id": "214", "depth_inches": 11.0, "zone": null, "ward": null, "remarks": "partially inundated covering one lane", "depth_cm": 27.94, "latitude": 13.0370623, "longitude": 80.2122555 }, "geometry": { "type": "Point", "coordinates": [ 80.2122555, 13.0370623 ] } },
{ "type": "Feature", "properties": { "flood_point_id": "215", "depth_inches": 11.0, "zone": null, "ward": null, "remarks": "partially inundated covering one lane", "depth_cm": 27.94, "latitude": 13.0373768, "longitude": 80.2122592 }, "geometry": { "type": "Point", "coordinates": [ 80.2122592, 13.0373768 ] } },
{ "type": "Feature", "properties": { "flood_point_id": "216", "depth_inches": 11.0, "zone": null, "ward": null, "remarks": "partially inundated covering one lane", "depth_cm": 27.94, "latitude": 13.0376545, "longitude": 80.2122545 }, "geometry": { "type": "Point", "coordinates": [ 80.2122545, 13.0376545 ] } },
{ "type": "Feature", "properties": { "flood_point_id": "217", "depth_inches": 15.0, "zone": null, "ward": null, "remarks": "completely inundated", "depth_cm": 38.1, "latitude": 13.0369042, "longitude": 80.2120752 }, "geometry": { "type": "Point", "coordinates": [ 80.2120752, 13.0369042 ] } },
{ "type": "Feature", "properties": { "flood_point_id": "218", "depth_inches": 11.0, "zone": null, "ward": null, "remarks": "completely inundated", "depth_cm": 27.94, "latitude": 13.0355496, "longitude": 80.2069562 }, "geometry": { "type": "Point", "coordinates": [ 80.2069562, 13.0355496 ] } },
{ "type": "Feature", "properties": { "flood_point_id": "219", "depth_inches": 11.0, "zone": null, "ward": null, "remarks": "completely inundated", "depth_cm": 27.94, "latitude": 13.0356316, "longitude": 80.205898 }, "geometry": { "type": "Point", "coordinates": [ 80.205898, 13.0356316 ] } },
{ "type": "Feature", "properties": { "flood_point_id": "220", "depth_inches": 14.0, "zone": null, "ward": null, "remarks": "completely inundated", "depth_cm": 35.56, "latitude": 13.0360726, "longitude": 80.2027478 }, "geometry": { "type": "Point", "coordinates": [ 80.2027478, 13.0360726 ] } },
{ "type": "Feature", "properties": { "flood_point_id": "221", "depth_inches": 15.0, "zone": null, "ward": null, "remarks": "completely inundated", "depth_cm": 38.1, "latitude": 13.036634, "longitude": 80.1996864 }, "geometry": { "type": "Point", "coordinates": [ 80.1996864, 13.036634 ] } },
{ "type": "Feature", "properties": { "flood_point_id": "222", "depth_inches": 14.0, "zone": null, "ward": null, "remarks": "completely inundated", "depth_cm": 35.56, "latitude": 13.0372798, "longitude": 80.1952989 }, "geometry": { "type": "Point", "coordinates": [ 80.1952989, 13.0372798 ] } },
{ "type": "Feature", "properties": { "flood_point_id": "223", "depth_inches": 16.0, "zone": null, "ward": null, "remarks": "completely inundated", "depth_cm": 40.64, "latitude": 13.0372981, "longitude": 80.2045636 }, "geometry": { "type": "Point", "coordinates": [ 80.2045636, 13.0372981 ] } },
{ "type": "Feature", "properties": { "flood_point_id": "224", "depth_inches": 16.0, "zone": null, "ward": null, "remarks": "completely inundated", "depth_cm": 40.64, "latitude": 13.0404935, "longitude": 80.2051007 }, "geometry": { "type": "Point", "coordinates": [ 80.2051007, 13.0404935 ] } },
{ "type": "Feature", "properties": { "flood_point_id": "225", "depth_inches": 5.0, "zone": null, "ward": null, "remarks": "tree fall", "depth_cm": 12.7, "latitude": 13.0385132, "longitude": 80.2084877 }, "geometry": { "type": "Point", "coordinates": [ 80.2084877, 13.0385132 ] } },
{ "type": "Feature", "properties": { "flood_point_id": "226", "depth_inches": 8.5, "zone": null, "ward": null, "remarks": "completely inundated", "depth_cm": 21.59, "latitude": 13.0404426, "longitude": 80.2087331 }, "geometry": { "type": "Point", "coordinates": [ 80.2087331, 13.0404426 ] } },
{ "type": "Feature", "properties": { "flood_point_id": "227", "depth_inches": 10.0, "zone": null, "ward": null, "remarks": "completely inundated", "depth_cm": 25.4, "latitude": 13.0413464, "longitude": 80.2088461 }, "geometry": { "type": "Point", "coordinates": [ 80.2088461, 13.0413464 ] } },
{ "type": "Feature", "properties": { "flood_point_id": "228", "depth_inches": 15.0, "zone": null, "ward": null, "remarks": "completely inundated", "depth_cm": 38.1, "latitude": 13.0418771, "longitude": 80.2089651 }, "geometry": { "type": "Point", "coordinates": [ 80.2089651, 13.0418771 ] } },
{ "type": "Feature", "properties": { "flood_point_id": "229", "depth_inches": 11.0, "zone": null, "ward": null, "remarks": "completely inundated", "depth_cm": 27.94, "latitude": 13.043134, "longitude": 80.2091093 }, "geometry": { "type": "Point", "coordinates": [ 80.2091093, 13.043134 ] } },
{ "type": "Feature", "properties": { "flood_point_id": "230", "depth_inches": 8.0, "zone": null, "ward": null, "remarks": "completely inundated", "depth_cm": 20.32, "latitude": 13.0377933, "longitude": 80.2131826 }, "geometry": { "type": "Point", "coordinates": [ 80.2131826, 13.0377933 ] } },
{ "type": "Feature", "properties": { "flood_point_id": "231", "depth_inches": 9.0, "zone": null, "ward": null, "remarks": "completely inundated", "depth_cm": 22.86, "latitude": 13.0384188, "longitude": 80.2136845 }, "geometry": { "type": "Point", "coordinates": [ 80.2136845, 13.0384188 ] } },
{ "type": "Feature", "properties": { "flood_point_id": "232", "depth_inches": 9.0, "zone": null, "ward": null, "remarks": "completely inundated", "depth_cm": 22.86, "latitude": 13.0390697, "longitude": 80.2141287 }, "geometry": { "type": "Point", "coordinates": [ 80.2141287, 13.0390697 ] } },
{ "type": "Feature", "properties": { "flood_point_id": "233", "depth_inches": 9.0, "zone": null, "ward": null, "remarks": "completely inundated covering  junction", "depth_cm": 22.86, "latitude": 13.0393931, "longitude": 80.2141814 }, "geometry": { "type": "Point", "coordinates": [ 80.2141814, 13.0393931 ] } },
{ "type": "Feature", "properties": { "flood_point_id": "234", "depth_inches": 9.0, "zone": null, "ward": null, "remarks": "completely inundated", "depth_cm": 22.86, "latitude": 13.0398795, "longitude": 80.2146709 }, "geometry": { "type": "Point", "coordinates": [ 80.2146709, 13.0398795 ] } },
{ "type": "Feature", "properties": { "flood_point_id": "235", "depth_inches": 9.0, "zone": null, "ward": null, "remarks": "completely inundated  raised upto 10", "depth_cm": 22.86, "latitude": 13.0405298, "longitude": 80.2151128 }, "geometry": { "type": "Point", "coordinates": [ 80.2151128, 13.0405298 ] } },
{ "type": "Feature", "properties": { "flood_point_id": "236", "depth_inches": 8.0, "zone": null, "ward": null, "remarks": "completely inundated", "depth_cm": 20.32, "latitude": 13.0433731, "longitude": 80.2198281 }, "geometry": { "type": "Point", "coordinates": [ 80.2198281, 13.0433731 ] } },
{ "type": "Feature", "properties": { "flood_point_id": "237", "depth_inches": 11.0, "zone": null, "ward": null, "remarks": "completely inundated", "depth_cm": 27.94, "latitude": 13.0430429, "longitude": 80.2214934 }, "geometry": { "type": "Point", "coordinates": [ 80.2214934, 13.0430429 ] } },
{ "type": "Feature", "properties": { "flood_point_id": "238", "depth_inches": 11.0, "zone": null, "ward": null, "remarks": "completely inundated", "depth_cm": 27.94, "latitude": 13.0420489, "longitude": 80.2254017 }, "geometry": { "type": "Point", "coordinates": [ 80.2254017, 13.0420489 ] } },
{ "type": "Feature", "properties": { "flood_point_id": "239", "depth_inches": 11.0, "zone": null, "ward": null, "remarks": "completely inundated", "depth_cm": 27.94, "latitude": 13.0417974, "longitude": 80.2264203 }, "geometry": { "type": "Point", "coordinates": [ 80.2264203, 13.0417974 ] } },
{ "type": "Feature", "properties": { "flood_point_id": "240", "depth_inches": 60.0, "zone": null, "ward": null, "remarks": "completely inundated  and subway closed", "depth_cm": 152.4, "latitude": 13.041265, "longitude": 80.2288312 }, "geometry": { "type": "Point", "coordinates": [ 80.2288312, 13.041265 ] } },
{ "type": "Feature", "properties": { "flood_point_id": "241", "depth_inches": 9.0, "zone": null, "ward": null, "remarks": "completely inundated junction", "depth_cm": 22.86, "latitude": 13.0422426, "longitude": 80.2249377 }, "geometry": { "type": "Point", "coordinates": [ 80.2249377, 13.0422426 ] } },
{ "type": "Feature", "properties": { "flood_point_id": "242", "depth_inches": 11.0, "zone": null, "ward": null, "remarks": "completely inundated", "depth_cm": 27.94, "latitude": 13.0453113, "longitude": 80.2257886 }, "geometry": { "type": "Point", "coordinates": [ 80.2257886, 13.0453113 ] } },
{ "type": "Feature", "properties": { "flood_point_id": "243", "depth_inches": 11.0, "zone": null, "ward": null, "remarks": "", "depth_cm": 27.94, "latitude": 13.0462056, "longitude": 80.2260793 }, "geometry": { "type": "Point", "coordinates": [ 80.2260793, 13.0462056 ] } },
{ "type": "Feature", "properties": { "flood_point_id": "244", "depth_inches": 11.0, "zone": null, "ward": null, "remarks": "completely inundated", "depth_cm": 27.94, "latitude": 13.0466935, "longitude": 80.2262097 }, "geometry": { "type": "Point", "coordinates": [ 80.2262097, 13.0466935 ] } },
{ "type": "Feature", "properties": { "flood_point_id": "245", "depth_inches": 11.0, "zone": null, "ward": null, "remarks": "completely inundated blocking junction", "depth_cm": 27.94, "latitude": 13.0467471, "longitude": 80.2260391 }, "geometry": { "type": "Point", "coordinates": [ 80.2260391, 13.0467471 ] } },
{ "type": "Feature", "properties": { "flood_point_id": "246", "depth_inches": 13.0, "zone": null, "ward": null, "remarks": "completely inundated", "depth_cm": 33.02, "latitude": 13.0474379, "longitude": 80.2329686 }, "geometry": { "type": "Point", "coordinates": [ 80.2329686, 13.0474379 ] } },
{ "type": "Feature", "properties": { "flood_point_id": "247", "depth_inches": 9.0, "zone": null, "ward": null, "remarks": "completely inundated", "depth_cm": 22.86, "latitude": 13.046916, "longitude": 80.2330048 }, "geometry": { "type": "Point", "coordinates": [ 80.2330048, 13.046916 ] } },
{ "type": "Feature", "properties": { "flood_point_id": "248", "depth_inches": 11.0, "zone": null, "ward": null, "remarks": "completely inundated", "depth_cm": 27.94, "latitude": 13.0435978, "longitude": 80.2324757 }, "geometry": { "type": "Point", "coordinates": [ 80.2324757, 13.0435978 ] } },
{ "type": "Feature", "properties": { "flood_point_id": "249", "depth_inches": 11.0, "zone": null, "ward": null, "remarks": "completely inundated", "depth_cm": 27.94, "latitude": 13.0452884, "longitude": 80.2328532 }, "geometry": { "type": "Point", "coordinates": [ 80.2328532, 13.0452884 ] } },
{ "type": "Feature", "properties": { "flood_point_id": "250", "depth_inches": 11.0, "zone": null, "ward": null, "remarks": "completely inundated", "depth_cm": 27.94, "latitude": 13.0484534, "longitude": 80.2332193 }, "geometry": { "type": "Point", "coordinates": [ 80.2332193, 13.0484534 ] } },
{ "type": "Feature", "properties": { "flood_point_id": "251", "depth_inches": 5.0, "zone": null, "ward": null, "remarks": "", "depth_cm": 12.7, "latitude": 13.0500548, "longitude": 80.2334125 }, "geometry": { "type": "Point", "coordinates": [ 80.2334125, 13.0500548 ] } },
{ "type": "Feature", "properties": { "flood_point_id": "252", "depth_inches": 12.0, "zone": null, "ward": null, "remarks": "completely inundated", "depth_cm": 30.48, "latitude": 13.0531155, "longitude": 80.2342553 }, "geometry": { "type": "Point", "coordinates": [ 80.2342553, 13.0531155 ] } },
{ "type": "Feature", "properties": { "flood_point_id": "253", "depth_inches": 9.0, "zone": null, "ward": null, "remarks": "completely inundated under flyover upto 7", "depth_cm": 22.86, "latitude": 13.0452495, "longitude": 80.2400948 }, "geometry": { "type": "Point", "coordinates": [ 80.2400948, 13.0452495 ] } },
{ "type": "Feature", "properties": { "flood_point_id": "254", "depth_inches": 11.0, "zone": null, "ward": null, "remarks": "", "depth_cm": 27.94, "latitude": 13.0449507, "longitude": 80.2402893 }, "geometry": { "type": "Point", "coordinates": [ 80.2402893, 13.0449507 ] } },
{ "type": "Feature", "properties": { "flood_point_id": "255", "depth_inches": 8.0, "zone": null, "ward": null, "remarks": "completely inundated under flyover upto  8", "depth_cm": 20.32, "latitude": 13.0446368, "longitude": 80.2395711 }, "geometry": { "type": "Point", "coordinates": [ 80.2395711, 13.0446368 ] } },
{ "type": "Feature", "properties": { "flood_point_id": "256", "depth_inches": 10.0, "zone": null, "ward": null, "remarks": "completely inundated", "depth_cm": 25.4, "latitude": 13.035077, "longitude": 80.230462 }, "geometry": { "type": "Point", "coordinates": [ 80.230462, 13.035077 ] } },
{ "type": "Feature", "properties": { "flood_point_id": "257", "depth_inches": 8.0, "zone": null, "ward": null, "remarks": "completely inundated upto 10", "depth_cm": 20.32, "latitude": 13.0345103, "longitude": 80.2303997 }, "geometry": { "type": "Point", "coordinates": [ 80.2303997, 13.0345103 ] } },
{ "type": "Feature", "properties": { "flood_point_id": "258", "depth_inches": 8.0, "zone": null, "ward": null, "remarks": "completely inundated upto 10", "depth_cm": 20.32, "latitude": 13.035109, "longitude": 80.2301133 }, "geometry": { "type": "Point", "coordinates": [ 80.2301133, 13.035109 ] } },
{ "type": "Feature", "properties": { "flood_point_id": "259", "depth_inches": 20.0, "zone": null, "ward": null, "remarks": "completely inundated upto 15inches", "depth_cm": 50.8, "latitude": 13.0369558, "longitude": 80.236042 }, "geometry": { "type": "Point", "coordinates": [ 80.236042, 13.0369558 ] } },
{ "type": "Feature", "properties": { "flood_point_id": "260", "depth_inches": 15.0, "zone": null, "ward": null, "remarks": "completely inundated upto 10 inch reported", "depth_cm": 38.1, "latitude": 13.0398788, "longitude": 80.2431848 }, "geometry": { "type": "Point", "coordinates": [ 80.2431848, 13.0398788 ] } },
{ "type": "Feature", "properties": { "flood_point_id": "261", "depth_inches": 7.0, "zone": null, "ward": null, "remarks": "partially inundated", "depth_cm": 17.78, "latitude": 13.0535541, "longitude": 80.2358865 }, "geometry": { "type": "Point", "coordinates": [ 80.2358865, 13.0535541 ] } },
{ "type": "Feature", "properties": { "flood_point_id": "262", "depth_inches": 7.0, "zone": null, "ward": null, "remarks": "partially inundated", "depth_cm": 17.78, "latitude": 13.0540689, "longitude": 80.2283666 }, "geometry": { "type": "Point", "coordinates": [ 80.2283666, 13.0540689 ] } },
{ "type": "Feature", "properties": { "flood_point_id": "263", "depth_inches": 10.0, "zone": null, "ward": null, "remarks": "partially inundated reported upto 7", "depth_cm": 25.4, "latitude": 13.0537432, "longitude": 80.2257631 }, "geometry": { "type": "Point", "coordinates": [ 80.2257631, 13.0537432 ] } },
{ "type": "Feature", "properties": { "flood_point_id": "264", "depth_inches": 9.0, "zone": null, "ward": null, "remarks": "completely inundated", "depth_cm": 22.86, "latitude": 13.0508249, "longitude": 80.2199863 }, "geometry": { "type": "Point", "coordinates": [ 80.2199863, 13.0508249 ] } },
{ "type": "Feature", "properties": { "flood_point_id": "265", "depth_inches": 9.0, "zone": null, "ward": null, "remarks": "completely inundated", "depth_cm": 22.86, "latitude": 13.0474784, "longitude": 80.219008 }, "geometry": { "type": "Point", "coordinates": [ 80.219008, 13.0474784 ] } },
{ "type": "Feature", "properties": { "flood_point_id": "266", "depth_inches": 9.0, "zone": null, "ward": null, "remarks": "completely inundated", "depth_cm": 22.86, "latitude": 13.044058, "longitude": 80.2176458 }, "geometry": { "type": "Point", "coordinates": [ 80.2176458, 13.044058 ] } },
{ "type": "Feature", "properties": { "flood_point_id": "267", "depth_inches": 12.0, "zone": null, "ward": null, "remarks": "completely inundated covering entirely road", "depth_cm": 30.48, "latitude": 13.0518417, "longitude": 80.218557 }, "geometry": { "type": "Point", "coordinates": [ 80.218557, 13.0518417 ] } },
{ "type": "Feature", "properties": { "flood_point_id": "268", "depth_inches": 12.0, "zone": null, "ward": null, "remarks": "completely inundated covering entirely road", "depth_cm": 30.48, "latitude": 13.0509079, "longitude": 80.215795 }, "geometry": { "type": "Point", "coordinates": [ 80.215795, 13.0509079 ] } },
{ "type": "Feature", "properties": { "flood_point_id": "269", "depth_inches": 11.0, "zone": null, "ward": null, "remarks": "completely flooded bocking entire road", "depth_cm": 27.94, "latitude": 13.0501364, "longitude": 80.2136962 }, "geometry": { "type": "Point", "coordinates": [ 80.2136962, 13.0501364 ] } },
{ "type": "Feature", "properties": { "flood_point_id": "3", "depth_inches": 7.0, "zone": null, "ward": null, "remarks": "road damage and water stagnant", "depth_cm": 17.78, "latitude": 13.1646096, "longitude": 80.2066212 }, "geometry": { "type": "Point", "coordinates": [ 80.2066212, 13.1646096 ] } },
{ "type": "Feature", "properties": { "flood_point_id": "4", "depth_inches": 7.0, "zone": null, "ward": null, "remarks": "water stagnant and drainage water into the road", "depth_cm": 17.78, "latitude": 13.163277, "longitude": 80.2087744 }, "geometry": { "type": "Point", "coordinates": [ 80.2087744, 13.163277 ] } },
{ "type": "Feature", "properties": { "flood_point_id": "5", "depth_inches": 7.5, "zone": null, "ward": null, "remarks": "road damage", "depth_cm": 19.05, "latitude": 13.1621226, "longitude": 80.2087767 }, "geometry": { "type": "Point", "coordinates": [ 80.2087767, 13.1621226 ] } },
{ "type": "Feature", "properties": { "flood_point_id": "6", "depth_inches": 7.5, "zone": null, "ward": null, "remarks": "road damage and water stagnant", "depth_cm": 19.05, "latitude": 13.1624664, "longitude": 80.208765 }, "geometry": { "type": "Point", "coordinates": [ 80.208765, 13.1624664 ] } },
{ "type": "Feature", "properties": { "flood_point_id": "7", "depth_inches": 9.0, "zone": null, "ward": null, "remarks": "road damage and water stagnant", "depth_cm": 22.86, "latitude": 13.1608164, "longitude": 80.2079063 }, "geometry": { "type": "Point", "coordinates": [ 80.2079063, 13.1608164 ] } },
{ "type": "Feature", "properties": { "flood_point_id": "8", "depth_inches": 9.0, "zone": null, "ward": null, "remarks": "water stagnant", "depth_cm": 22.86, "latitude": 13.1528236, "longitude": 80.2087217 }, "geometry": { "type": "Point", "coordinates": [ 80.2087217, 13.1528236 ] } },
{ "type": "Feature", "properties": { "flood_point_id": "9", "depth_inches": 11.0, "zone": null, "ward": null, "remarks": "water stagnant and road damage", "depth_cm": 27.94, "latitude": 13.1449155, "longitude": 80.223201 }, "geometry": { "type": "Point", "coordinates": [ 80.223201, 13.1449155 ] } },
{ "type": "Feature", "properties": { "flood_point_id": "10", "depth_inches": 13.0, "zone": null, "ward": null, "remarks": "water stagnant and drainage water into the road and road closed", "depth_cm": 33.02, "latitude": 13.1440562, "longitude": 80.2543578 }, "geometry": { "type": "Point", "coordinates": [ 80.2543578, 13.1440562 ] } },
{ "type": "Feature", "properties": { "flood_point_id": "11", "depth_inches": 9.5, "zone": null, "ward": null, "remarks": "water stagnant", "depth_cm": 24.13, "latitude": 13.1447196, "longitude": 80.2544242 }, "geometry": { "type": "Point", "coordinates": [ 80.2544242, 13.1447196 ] } },
{ "type": "Feature", "properties": { "flood_point_id": "12", "depth_inches": 11.0, "zone": null, "ward": null, "remarks": "water stagnant", "depth_cm": 27.94, "latitude": 13.1539213, "longitude": 80.2570136 }, "geometry": { "type": "Point", "coordinates": [ 80.2570136, 13.1539213 ] } },
{ "type": "Feature", "properties": { "flood_point_id": "13", "depth_inches": 8.5, "zone": null, "ward": null, "remarks": "water stagnant", "depth_cm": 21.59, "latitude": 13.1539653, "longitude": 80.2574373 }, "geometry": { "type": "Point", "coordinates": [ 80.2574373, 13.1539653 ] } },
{ "type": "Feature", "properties": { "flood_point_id": "14", "depth_inches": 7.5, "zone": null, "ward": null, "remarks": "", "depth_cm": 19.05, "latitude": 13.1560963, "longitude": 80.261058 }, "geometry": { "type": "Point", "coordinates": [ 80.261058, 13.1560963 ] } },
{ "type": "Feature", "properties": { "flood_point_id": "15", "depth_inches": 10.0, "zone": null, "ward": null, "remarks": "water stagnant", "depth_cm": 25.4, "latitude": 13.1531955, "longitude": 80.2575704 }, "geometry": { "type": "Point", "coordinates": [ 80.2575704, 13.1531955 ] } },
{ "type": "Feature", "properties": { "flood_point_id": "16", "depth_inches": 11.0, "zone": null, "ward": null, "remarks": "water stagnant", "depth_cm": 27.94, "latitude": 13.1514733, "longitude": 80.257961 }, "geometry": { "type": "Point", "coordinates": [ 80.257961, 13.1514733 ] } },
{ "type": "Feature", "properties": { "flood_point_id": "17", "depth_inches": 11.0, "zone": null, "ward": null, "remarks": "water stagnant", "depth_cm": 27.94, "latitude": 13.148914, "longitude": 80.2581575 }, "geometry": { "type": "Point", "coordinates": [ 80.2581575, 13.148914 ] } },
{ "type": "Feature", "properties": { "flood_point_id": "18", "depth_inches": 15.0, "zone": null, "ward": null, "remarks": "water stagnant", "depth_cm": 38.1, "latitude": 13.1499924, "longitude": 80.2584462 }, "geometry": { "type": "Point", "coordinates": [ 80.2584462, 13.1499924 ] } },
{ "type": "Feature", "properties": { "flood_point_id": "19", "depth_inches": 13.0, "zone": null, "ward": null, "remarks": "water stagnant", "depth_cm": 33.02, "latitude": 13.1308786, "longitude": 80.2007921 }, "geometry": { "type": "Point", "coordinates": [ 80.2007921, 13.1308786 ] } },
{ "type": "Feature", "properties": { "flood_point_id": "20", "depth_inches": 10.0, "zone": null, "ward": null, "remarks": "water stagnant", "depth_cm": 25.4, "latitude": 13.1332569, "longitude": 80.1941523 }, "geometry": { "type": "Point", "coordinates": [ 80.1941523, 13.1332569 ] } },
{ "type": "Feature", "properties": { "flood_point_id": "21", "depth_inches": 11.0, "zone": null, "ward": null, "remarks": "", "depth_cm": 27.94, "latitude": 13.1297273, "longitude": 80.1938234 }, "geometry": { "type": "Point", "coordinates": [ 80.1938234, 13.1297273 ] } },
{ "type": "Feature", "properties": { "flood_point_id": "22", "depth_inches": 9.5, "zone": null, "ward": null, "remarks": "water stagnant", "depth_cm": 24.13, "latitude": 13.1453612, "longitude": 80.2189292 }, "geometry": { "type": "Point", "coordinates": [ 80.2189292, 13.1453612 ] } },
{ "type": "Feature", "properties": { "flood_point_id": "23", "depth_inches": 11.0, "zone": null, "ward": null, "remarks": "water stagnant", "depth_cm": 27.94, "latitude": 13.1461869, "longitude": 80.2177802 }, "geometry": { "type": "Point", "coordinates": [ 80.2177802, 13.1461869 ] } },
{ "type": "Feature", "properties": { "flood_point_id": "24", "depth_inches": 9.0, "zone": null, "ward": null, "remarks": "water stagnant", "depth_cm": 22.86, "latitude": 13.141982, "longitude": 80.1855481 }, "geometry": { "type": "Point", "coordinates": [ 80.1855481, 13.141982 ] } },
{ "type": "Feature", "properties": { "flood_point_id": "25", "depth_inches": 9.5, "zone": null, "ward": null, "remarks": "water stagnant", "depth_cm": 24.13, "latitude": 13.1406943, "longitude": 80.1861529 }, "geometry": { "type": "Point", "coordinates": [ 80.1861529, 13.1406943 ] } },
{ "type": "Feature", "properties": { "flood_point_id": "26", "depth_inches": 11.0, "zone": null, "ward": null, "remarks": "water stagnant", "depth_cm": 27.94, "latitude": 13.1321301, "longitude": 80.1708952 }, "geometry": { "type": "Point", "coordinates": [ 80.1708952, 13.1321301 ] } },
{ "type": "Feature", "properties": { "flood_point_id": "27", "depth_inches": 10.0, "zone": null, "ward": null, "remarks": "water stagnant and water from the park lake", "depth_cm": 25.4, "latitude": 13.1222138, "longitude": 80.1674375 }, "geometry": { "type": "Point", "coordinates": [ 80.1674375, 13.1222138 ] } },
{ "type": "Feature", "properties": { "flood_point_id": "28", "depth_inches": 9.0, "zone": null, "ward": null, "remarks": "water stagnant and drainage water into the road", "depth_cm": 22.86, "latitude": 13.1195037, "longitude": 80.1685701 }, "geometry": { "type": "Point", "coordinates": [ 80.1685701, 13.1195037 ] } },
{ "type": "Feature", "properties": { "flood_point_id": "29", "depth_inches": 8.0, "zone": null, "ward": null, "remarks": "water stagnant and damage roads", "depth_cm": 20.32, "latitude": 13.1173441, "longitude": 80.169028 }, "geometry": { "type": "Point", "coordinates": [ 80.169028, 13.1173441 ] } },
{ "type": "Feature", "properties": { "flood_point_id": "30", "depth_inches": 10.0, "zone": null, "ward": null, "remarks": "water stagnant", "depth_cm": 25.4, "latitude": 13.1233834, "longitude": 80.2015361 }, "geometry": { "type": "Point", "coordinates": [ 80.2015361, 13.1233834 ] } },
{ "type": "Feature", "properties": { "flood_point_id": "29", "depth_inches": 5.0, "zone": null, "ward": null, "remarks": "Water stagnant", "depth_cm": 12.7, "latitude": 13.0154388, "longitude": 80.1890135 }, "geometry": { "type": "Point", "coordinates": [ 80.1890135, 13.0154388 ] } },
{ "type": "Feature", "properties": { "flood_point_id": "30", "depth_inches": 5.0, "zone": null, "ward": null, "remarks": "Water flow", "depth_cm": 12.7, "latitude": 13.0159536, "longitude": 80.1816086 }, "geometry": { "type": "Point", "coordinates": [ 80.1816086, 13.0159536 ] } },
{ "type": "Feature", "properties": { "flood_point_id": "110", "depth_inches": 8.0, "zone": null, "ward": null, "remarks": "water stagnant", "depth_cm": 20.32, "latitude": 13.100092, "longitude": 80.1676836 }, "geometry": { "type": "Point", "coordinates": [ 80.1676836, 13.100092 ] } },
{ "type": "Feature", "properties": { "flood_point_id": "111", "depth_inches": 5.0, "zone": null, "ward": null, "remarks": "", "depth_cm": 12.7, "latitude": 13.0996169, "longitude": 80.1708717 }, "geometry": { "type": "Point", "coordinates": [ 80.1708717, 13.0996169 ] } },
{ "type": "Feature", "properties": { "flood_point_id": "112", "depth_inches": 10.0, "zone": null, "ward": null, "remarks": "water stagnant", "depth_cm": 25.4, "latitude": 13.0995692, "longitude": 80.1720482 }, "geometry": { "type": "Point", "coordinates": [ 80.1720482, 13.0995692 ] } },
{ "type": "Feature", "properties": { "flood_point_id": "113", "depth_inches": 12.0, "zone": null, "ward": null, "remarks": "water stagnant", "depth_cm": 30.48, "latitude": 13.1019847, "longitude": 80.2148378 }, "geometry": { "type": "Point", "coordinates": [ 80.2148378, 13.1019847 ] } },
{ "type": "Feature", "properties": { "flood_point_id": "114", "depth_inches": 8.0, "zone": null, "ward": null, "remarks": "water stagnant", "depth_cm": 20.32, "latitude": 13.1026208, "longitude": 80.2093732 }, "geometry": { "type": "Point", "coordinates": [ 80.2093732, 13.1026208 ] } },
{ "type": "Feature", "properties": { "flood_point_id": "115", "depth_inches": 7.0, "zone": null, "ward": null, "remarks": "water stagnant", "depth_cm": 17.78, "latitude": 13.1056097, "longitude": 80.2092917 }, "geometry": { "type": "Point", "coordinates": [ 80.2092917, 13.1056097 ] } },
{ "type": "Feature", "properties": { "flood_point_id": "116", "depth_inches": 8.0, "zone": null, "ward": null, "remarks": "water stagnant", "depth_cm": 20.32, "latitude": 13.1055695, "longitude": 80.21084 }, "geometry": { "type": "Point", "coordinates": [ 80.21084, 13.1055695 ] } },
{ "type": "Feature", "properties": { "flood_point_id": "117", "depth_inches": 9.0, "zone": null, "ward": null, "remarks": "water stagnant", "depth_cm": 22.86, "latitude": 13.1058529, "longitude": 80.2072753 }, "geometry": { "type": "Point", "coordinates": [ 80.2072753, 13.1058529 ] } },
{ "type": "Feature", "properties": { "flood_point_id": "118", "depth_inches": 12.0, "zone": null, "ward": null, "remarks": "water stagnant", "depth_cm": 30.48, "latitude": 13.1053047, "longitude": 80.2071912 }, "geometry": { "type": "Point", "coordinates": [ 80.2071912, 13.1053047 ] } },
{ "type": "Feature", "properties": { "flood_point_id": "119", "depth_inches": 12.0, "zone": null, "ward": null, "remarks": "water stagnant", "depth_cm": 30.48, "latitude": 13.1056005, "longitude": 80.2071365 }, "geometry": { "type": "Point", "coordinates": [ 80.2071365, 13.1056005 ] } },
{ "type": "Feature", "properties": { "flood_point_id": "120", "depth_inches": 8.0, "zone": null, "ward": null, "remarks": "water stagnant", "depth_cm": 20.32, "latitude": 13.1141395, "longitude": 80.1985484 }, "geometry": { "type": "Point", "coordinates": [ 80.1985484, 13.1141395 ] } }
]
}
